[{"OBJECT_NAME":"ONEWEB-0704","OBJECT_ID":"2024-188R","EPOCH":"2025-11-18T09:34:43.110048","MEAN_MOTION":13.10371642,"ECCENTRICITY":0.0001904,"INCLINATION":87.8822,"RA_OF_ASC_NODE":78.2408,"ARG_OF_PERICENTER":71.2863,"MEAN_ANOMALY":288.8471,"EPHEMERIS_TYPE":0,"CLASSIFICATION_TYPE":"U","NORAD_CAT_ID":61609,"ELEMENT_SET_NO":999,"REV_AT_EPOCH":5568,"BSTAR":0.0017398,"MEAN_MOTION_DOT":6.2e-6,"MEAN_MOTION_DDOT":0},{"OBJECT_NAME":"ONEWEB-0705","OBJECT_ID":"2024-188S","EPOCH":"2025-11-18T07:51:56.760192","MEAN_MOTION":13.1037705,"ECCENTRICITY":0.0001054,"INCLINATION":87.8809,"RA_OF_ASC_NODE":78.2798,"ARG_OF_PERICENTER":58.6286,"MEAN_ANOMALY":301.4944,"EPHEMERIS_TYPE":0,"CLASSIFICATION_TYPE":"U","NORAD_CAT_ID":61610,"ELEMENT_SET_NO":999,"REV_AT_EPOCH":4784,"BSTAR":0.0045223,"MEAN_MOTION_DOT":1.592e-5,"MEAN_MOTION_DDOT":0},{"OBJECT_NAME":"ONEWEB-0706","OBJECT_ID":"2024-188T","EPOCH":"2025-11-18T05:40:27.260832","MEAN_MOTION":13.10375921,"ECCENTRICITY":0.0001562,"INCLINATION":87.8802,"RA_OF_ASC_NODE":78.3209,"ARG_OF_PERICENTER":76.9589,"MEAN_ANOMALY":283.1713,"EPHEMERIS_TYPE":0,"CLASSIFICATION_TYPE":"U","NORAD_CAT_ID":61611,"ELEMENT_SET_NO":999,"REV_AT_EPOCH":5575,"BSTAR":0.0018585,"MEAN_MOTION_DOT":6.61e-6,"MEAN_MOTION_DDOT":0},{"OBJECT_NAME":"ONEWEB-0707","OBJECT_ID":"2024-188U","EPOCH":"2025-11-18T09:29:56.078016","MEAN_MOTION":13.10373921,"ECCENTRICITY":0.0001613,"INCLINATION":87.8819,"RA_OF_ASC_NODE":78.2635,"ARG_OF_PERICENTER":78.8305,"MEAN_ANOMALY":281.3004,"EPHEMERIS_TYPE":0,"CLASSIFICATION_TYPE":"U","NORAD_CAT_ID":61612,"ELEMENT_SET_NO":999,"REV_AT_EPOCH":5571,"BSTAR":0.0017618,"MEAN_MOTION_DOT":6.28e-6,"MEAN_MOTION_DDOT":0},{"OBJECT_NAME":"ONEWEB-0708","OBJECT_ID":"2024-188V","EPOCH":"2025-11-18T08:06:16.128288","MEAN_MOTION":13.10370194,"ECCENTRICITY":9.71e-5,"INCLINATION":87.8799,"RA_OF_ASC_NODE":78.3134,"ARG_OF_PERICENTER":99.2508,"MEAN_ANOMALY":260.8729,"EPHEMERIS_TYPE":0,"CLASSIFICATION_TYPE":"U","NORAD_CAT_ID":61613,"ELEMENT_SET_NO":999,"REV_AT_EPOCH":5568,"BSTAR":-4.4709e-5,"MEAN_MOTION_DOT":-3.0e-8,"MEAN_MOTION_DDOT":0}]
