ONEWEB-0704             
1 61609U 24188R   25322.39911007  .00000620  00000+0  17398-2 0  9996
2 61609  87.8822  78.2408 0001904  71.2863 288.8471 13.10371642 55689
ONEWEB-0705             
1 61610U 24188S   25322.32774028  .00001592  00000+0  45223-2 0  9998
2 61610  87.8809  78.2798 0001054  58.6286 301.4944 13.10377050 47847
ONEWEB-0706             
1 61611U 24188T   25322.23642663  .00000661  00000+0  18585-2 0  9995
2 61611  87.8802  78.3209 0001562  76.9589 283.1713 13.10375921 55756
ONEWEB-0707             
1 61612U 24188U   25322.39578794  .00000628  00000+0  17618-2 0  9995
2 61612  87.8819  78.2635 0001613  78.8305 281.3004 13.10373921 55718
ONEWEB-0708             
1 61613U 24188V   25322.33768667 -.00000003  00000+0 -44709-4 0  9992
2 61613  87.8799  78.3134 0000971  99.2508 260.8729 13.10370194 55680
